SL-16 R/B               
1 25400U 98043G   26046.27928052  .00000084  00000+0  54075-4 0  9994
2 25400  98.8216 359.4894 0010970  80.4477 279.7942 14.26044476435792
SL-16 R/B               
1 25407U 98045B   26045.97059347  .00000309  00000+0  18037-3 0  9998
2 25407  71.0087 229.3505 0005650  49.4421 310.7193 14.16187842423880
ISS (ZARYA)             
1 25544U 98067A   26046.18242609  .00011408  00000+0  21745-3 0  9995
2 25544  51.6317 183.6135 0011047 100.3471 259.8763 15.48615434552846
CZ-4B R/B               
1 25732U 99025C   26046.16189672  .00000057  00000+0  48063-4 0  9998
2 25732  98.6672  90.9721 0037915  50.9851  17.4537 14.18260652384973
OKEAN-O                 
1 25860U 99039A   26046.14307900  .00000630  00000+0  89568-4 0  9991
2 25860  97.9493 106.2581 0001832  82.0327 278.1093 14.80297249431052
SL-16 R/B               
1 25861U 99039B   26046.14424117  .00000551  00000+0  76769-4 0  9993
2 25861  98.0016 105.2686 0014151 335.6061  24.4480 14.81698644433522
DELTA 2 R/B             
1 25876U 99041E   26046.28339352  .00002435  00000+0  42894-3 0  9997
2 25876  51.7657  30.7593 0502252 282.2491  72.2650 14.11752745359862
HELIOS 1B               
1 25977U 99064A   26046.24862006  .00002098  00000+0  23727-3 0  9996
2 25977  98.1723 307.8300 0002276 104.7500 255.3968 14.87604326681922
TERRA                   
1 25994U 99068A   26046.25399634  .00000567  00000+0  12479-3 0  9993
2 25994  97.9642 100.5403 0001126 226.3440 208.0928 14.60990386391808
SL-16 R/B               
1 26070U 00006B   26046.26267925 -.00000201  00000+0 -77951-4 0  9995
2 26070  71.0026 144.9933 0018089 221.8528 138.1213 14.15819051345387
TITAN 4B R/B            
1 26474U 00047B   26046.23342522  .00003791  00000+0  24139-3 0  9996
2 26474  67.9886 103.6485 0037096  62.8925 297.6000 15.09367361389525
ENVISAT                 
1 27386U 02009A   26046.31205233  .00000156  00000+0  64291-4 0  9991
2 27386  98.3691   0.4477 0001356  87.6950  75.0121 14.39028558255953
